{
  "norad_id": 59641,
  "name": "STARLINK-31804",
  "history": [
    {
      "epoch": "2026-03-28T13:49:23.852928Z",
      "apogee_km": 484.06576196675087,
      "perigee_km": 482.1665670908096,
      "latitude_deg": -5.243051062727462e-06,
      "longitude_deg": -0.4787310400263297,
      "height_km": 482.88879047472454,
      "semi_major_axis_km": 6861.25316452878,
      "eccentricity": 0.0001384,
      "inclination_deg": 43.0052,
      "raan_deg": 32.8651,
      "arg_perigee_deg": 270.2803,
      "mean_anomaly_deg": 89.789,
      "mean_motion_rev_day": 15.27557602
    },
    {
      "epoch": "2026-03-29T02:22:38.460000Z",
      "apogee_km": 484.14122826892526,
      "perigee_km": 481.94702254501954,
      "latitude_deg": 1.020312706965118e-05,
      "longitude_deg": 167.74014569256377,
      "height_km": 482.7466915282085,
      "semi_major_axis_km": 6861.181125406972,
      "eccentricity": 0.0001599,
      "inclination_deg": 43.0047,
      "raan_deg": 29.9104,
      "arg_perigee_deg": 273.9109,
      "mean_anomaly_deg": 86.156,
      "mean_motion_rev_day": 15.2758166
    },
    {
      "epoch": "2026-03-29T05:30:57.247200Z",
      "apogee_km": 484.217212174819,
      "perigee_km": 481.7801367832435,
      "latitude_deg": 4.256442270567466e-05,
      "longitude_deg": 119.79500451095113,
      "height_km": 482.8268877824847,
      "semi_major_axis_km": 6861.135674479031,
      "eccentricity": 0.0001776,
      "inclination_deg": 43.0068,
      "raan_deg": 29.1724,
      "arg_perigee_deg": 267.6264,
      "mean_anomaly_deg": 92.4385,
      "mean_motion_rev_day": 15.27596839
    },
    {
      "epoch": "2026-03-30T12:54:05.559840Z",
      "apogee_km": 484.0255997571494,
      "perigee_km": 482.05054190126157,
      "latitude_deg": 1.0911186048864975e-05,
      "longitude_deg": 0.33497324459783484,
      "height_km": 482.85244490298004,
      "semi_major_axis_km": 6861.175070829206,
      "eccentricity": 0.00014393,
      "inclination_deg": 43.0032,
      "raan_deg": 21.786,
      "arg_perigee_deg": 267.8359,
      "mean_anomaly_deg": 92.2328,
      "mean_motion_rev_day": 15.27583682
    },
    {
      "epoch": "2026-03-30T20:44:53.101536Z",
      "apogee_km": 484.0433961746621,
      "perigee_km": 482.1271940120878,
      "latitude_deg": 1.8495367461316043e-05,
      "longitude_deg": -119.53315461110164,
      "height_km": 483.1798137814694,
      "semi_major_axis_km": 6861.222295093375,
      "eccentricity": 0.00013964,
      "inclination_deg": 43.0028,
      "raan_deg": 19.9382,
      "arg_perigee_deg": 250.6396,
      "mean_anomaly_deg": 109.4305,
      "mean_motion_rev_day": 15.27567911
    },
    {
      "epoch": "2026-03-31T12:26:27.822048Z",
      "apogee_km": 483.8837203213534,
      "perigee_km": 482.31441840756816,
      "latitude_deg": 7.923419519428179e-06,
      "longitude_deg": 0.7377784973058533,
      "height_km": 482.92605340672014,
      "semi_major_axis_km": 6861.2360693644605,
      "eccentricity": 0.00011436,
      "inclination_deg": 43.0041,
      "raan_deg": 16.2483,
      "arg_perigee_deg": 266.3428,
      "mean_anomaly_deg": 93.7293,
      "mean_motion_rev_day": 15.27563311
    },
    {
      "epoch": "2026-04-01T11:58:49.063008Z",
      "apogee_km": 483.7377254612238,
      "perigee_km": 482.4327209943658,
      "latitude_deg": 4.972593205286538e-05,
      "longitude_deg": 1.1440983878805522,
      "height_km": 482.79400766158295,
      "semi_major_axis_km": 6861.2222232277945,
      "eccentricity": 9.51e-05,
      "inclination_deg": 43.005,
      "raan_deg": 10.7098,
      "arg_perigee_deg": 275.9898,
      "mean_anomaly_deg": 84.0846,
      "mean_motion_rev_day": 15.27567935
    },
    {
      "epoch": "2026-04-02T11:31:08.835168Z",
      "apogee_km": 483.87487974916075,
      "perigee_km": 482.1715281169336,
      "latitude_deg": 5.677133026706588e-06,
      "longitude_deg": 1.555563156030244,
      "height_km": 482.67727532571763,
      "semi_major_axis_km": 6861.160203933047,
      "eccentricity": 0.00012413,
      "inclination_deg": 43.0057,
      "raan_deg": 5.1704,
      "arg_perigee_deg": 278.3131,
      "mean_anomaly_deg": 81.758,
      "mean_motion_rev_day": 15.27588647
    },
    {
      "epoch": "2026-04-03T11:03:31.002336Z",
      "apogee_km": 483.6449048000313,
      "perigee_km": 482.69145783203567,
      "latitude_deg": 3.5873780690509716e-05,
      "longitude_deg": 1.9562999375617738,
      "height_km": 482.53336866298395,
      "semi_major_axis_km": 6861.305181316033,
      "eccentricity": 6.948e-05,
      "inclination_deg": 43.009,
      "raan_deg": 359.6302,
      "arg_perigee_deg": 329.707,
      "mean_anomaly_deg": 30.3742,
      "mean_motion_rev_day": 15.27540231
    },
    {
      "epoch": "2026-04-04T10:35:51.209088Z",
      "apogee_km": 483.3206847834754,
      "perigee_km": 482.68259888978446,
      "latitude_deg": -2.467131547801608e-05,
      "longitude_deg": 2.36622995425946,
      "height_km": 482.48082053445717,
      "semi_major_axis_km": 6861.138641836629,
      "eccentricity": 4.65e-05,
      "inclination_deg": 43.0082,
      "raan_deg": 354.0911,
      "arg_perigee_deg": 338.753,
      "mean_anomaly_deg": 21.3302,
      "mean_motion_rev_day": 15.27595848
    },
    {
      "epoch": "2026-04-05T10:08:11.336352Z",
      "apogee_km": 484.29794432689414,
      "perigee_km": 481.7755024192338,
      "latitude_deg": -2.8984195833745825e-05,
      "longitude_deg": 2.7770512005412993,
      "height_km": 482.9553385899839,
      "semi_major_axis_km": 6861.173723373064,
      "eccentricity": 0.00018382,
      "inclination_deg": 43.0079,
      "raan_deg": 348.5525,
      "arg_perigee_deg": 263.5944,
      "mean_anomaly_deg": 96.4698,
      "mean_motion_rev_day": 15.27584132
    }
  ]
}